     2              NAVIGATION DATA                         RINEX VERSION / TYPE
CCRINEXN V1.6.0 UX  CDDIS               03-JUN-16 15:33     PGM / RUN BY / DATE 
IGS BROADCAST EPHEMERIS FILE                                COMMENT             
    0.6519D-08  0.2235D-07 -0.5960D-07 -0.1192D-06          ION ALPHA           
    0.8602D+05  0.9830D+05 -0.6554D+05 -0.5243D+06          ION BETA            
    0.186264514923D-08 0.710542735760D-14   589824     1899 DELTA-UTC: A0,A1,T,W
    17                                                      LEAP SECONDS        
                                                            END OF HEADER       
21 16  6  2  2  0  0.0-0.524577219039D-03-0.113686837722D-11 0.000000000000D+00
    0.620000000000D+02 0.365625000000D+01 0.577595482554D-08 0.153366092524D+01
   -0.262632966042D-06 0.233676951611D-01 0.514090061188D-05 0.515359763145D+04
    0.352800000000D+06-0.292435288429D-06-0.231927487637D+01-0.588595867157D-06
    0.936318775790D+00 0.273468750000D+03-0.178635253227D+01-0.875643646481D-08
    0.271797029328D-09 0.100000000000D+01 0.189900000000D+04 0.000000000000D+00
    0.200000000000D+01 0.000000000000D+00-0.102445483208D-07 0.620000000000D+02
    0.345600000000D+06 0.000000000000D+00 0.000000000000D+00 0.000000000000D+00
22 16  6  2  2  0  0.0 0.329365953803D-03-0.841282599140D-11 0.000000000000D+00
    0.310000000000D+02-0.497500000000D+02 0.560273337633D-08-0.134348097514D+01
   -0.258162617683D-05 0.768239994068D-02 0.905804336071D-05 0.515380854416D+04
    0.352800000000D+06 0.968575477600D-07-0.127632076434D+01 0.150874257088D-06
    0.922540577370D+00 0.181312500000D+03-0.191470163533D+01-0.854428447517D-08
   -0.682171272314D-09 0.000000000000D+00 0.189900000000D+04 0.000000000000D+00
    0.200000000000D+01 0.000000000000D+00-0.176951289177D-07 0.310000000000D+02
    0.345600000000D+06 0.400000000000D+01 0.000000000000D+00 0.000000000000D+00
23 16  6  2  2  0  0.0-0.176355708390D-03-0.159161572810D-11 0.000000000000D+00
    0.480000000000D+02 0.968437500000D+02 0.446768609706D-08-0.222046274618D+01
    0.485219061375D-05 0.109788908158D-01 0.119209289551D-04 0.515367901039D+04
    0.352800000000D+06 0.670552253723D-07-0.199291925537D+00-0.137835741043D-06
    0.946346476501D+00 0.139906250000D+03-0.257230688542D+01-0.791497254752D-08
    0.151077721565D-09 0.000000000000D+00 0.189900000000D+04 0.000000000000D+00
    0.200000000000D+01 0.000000000000D+00-0.200234353542D-07 0.480000000000D+02
    0.345600000000D+06 0.400000000000D+01 0.000000000000D+00 0.000000000000D+00
24 16  6  2  2  0  0.0-0.179437920451D-04-0.568434188608D-12 0.000000000000D+00
    0.900000000000D+02 0.517187500000D+02 0.492056210402D-08-0.279500477462D+01
    0.273250043392D-05 0.440781621728D-02 0.183284282684D-05 0.515361574745D+04
    0.352800000000D+06 0.298023223877D-07 0.826066569171D+00-0.130385160446D-07
    0.949484283637D+00 0.338906250000D+03 0.418621255679D+00-0.854428447517D-08
    0.186793494985D-09 0.100000000000D+01 0.189900000000D+04 0.000000000000D+00
    0.200000000000D+01 0.000000000000D+00 0.232830643654D-08 0.900000000000D+02
    0.345618000000D+06 0.400000000000D+01 0.000000000000D+00 0.000000000000D+00
25 16  6  2  2  0  0.0-0.182500109076D-03-0.704858393874D-11 0.000000000000D+00
    0.430000000000D+02-0.957187500000D+02 0.410552815458D-08 0.145178147349D+01
   -0.510923564434D-05 0.562484876718D-02 0.744313001633D-05 0.515374756241D+04
    0.352800000000D+06-0.707805156708D-07 0.189909028645D+01 0.894069671631D-07
    0.978339321634D+00 0.243000000000D+03 0.776453708174D+00-0.807533637017D-08
   -0.296440919383D-09 0.100000000000D+01 0.189900000000D+04 0.000000000000D+00
    0.200000000000D+01 0.000000000000D+00 0.558793544769D-08 0.430000000000D+02
    0.345618000000D+06 0.400000000000D+01 0.000000000000D+00 0.000000000000D+00
26 16  6  2  2  0  0.0-0.383105594665D-03-0.117097442853D-10 0.000000000000D+00
    0.830000000000D+02-0.115062500000D+03 0.445232831449D-08 0.648714576126D+00
   -0.591389834881D-05 0.102533039171D-02 0.741332769394D-05 0.515376903534D+04
    0.352800000000D+06 0.651925802231D-07 0.189001552618D+01 0.298023223877D-07
    0.960308642721D+00 0.236437500000D+03 0.184976852274D+00-0.822855703814D-08
   -0.292512184307D-09 0.000000000000D+00 0.189900000000D+04 0.000000000000D+00
    0.200000000000D+01 0.000000000000D+00 0.698491930962D-08 0.830000000000D+02
    0.345600000000D+06 0.400000000000D+01 0.000000000000D+00 0.000000000000D+00
27 16  6  2  2  0  0.0 0.989492982626D-04 0.409272615798D-11 0.000000000000D+00
    0.360000000000D+02-0.111250000000D+02 0.416588781166D-08-0.909343464640D+00
   -0.568106770515D-06 0.370907760225D-02 0.119581818581D-04 0.515364481926D+04
    0.352800000000D+06 0.894069671631D-07 0.294031564038D+01-0.111758708954D-07
    0.971751538198D+00 0.151843750000D+03 0.290598169769D+00-0.780925385820D-08
    0.575738267524D-09 0.000000000000D+00 0.189900000000D+04 0.000000000000D+00
    0.200000000000D+01 0.000000000000D+00 0.139698386192D-08 0.360000000000D+02
    0.345600000000D+06 0.400000000000D+01 0.000000000000D+00 0.000000000000D+00
28 16  6  2  2  0  0.0 0.527200754732D-03 0.261479726760D-11 0.000000000000D+00
    0.111000000000D+03-0.101718750000D+03 0.388944772540D-08-0.117212355371D+00
   -0.546500086784D-05 0.197389957029D-01 0.775605440140D-05 0.515362883949D+04
    0.352800000000D+06-0.376254320145D-06 0.197382514620D+01 0.782310962677D-07
    0.989366802504D+00 0.250718750000D+03-0.161653250023D+01-0.817534053575D-08
   -0.175721605225D-09 0.100000000000D+01 0.189900000000D+04 0.000000000000D+00
    0.280000000000D+01 0.000000000000D+00-0.111758708954D-07 0.111000000000D+03
    0.345630000000D+06 0.400000000000D+01 0.000000000000D+00 0.000000000000D+00
29 16  6  2  2  0  0.0 0.656963326037D-03-0.227373675443D-12 0.000000000000D+00
    0.780000000000D+02 0.868750000000D+01 0.409588489576D-08 0.138469073374D+01
    0.245869159698D-06 0.956307863817D-03 0.116676092148D-04 0.515356632233D+04
    0.352800000000D+06-0.372529029846D-08 0.299994471380D+01 0.689178705216D-07
    0.977790069041D+00 0.167593750000D+03-0.205731113070D+00-0.774567978151D-08
    0.547165648788D-09 0.100000000000D+01 0.189900000000D+04 0.000000000000D+00
    0.200000000000D+01 0.000000000000D+00-0.102445483208D-07 0.780000000000D+02
    0.345648000000D+06 0.400000000000D+01 0.000000000000D+00 0.000000000000D+00
30 16  6  2  2  0  0.0 0.129952095449D-03 0.284217094304D-11 0.000000000000D+00
    0.490000000000D+02 0.494687500000D+02 0.496806408267D-08 0.268301518747D+01
    0.255554914475D-05 0.213706854265D-02 0.166893005371D-05 0.515359747696D+04
    0.352800000000D+06 0.931322574616D-08 0.917413533728D+00 0.931322574616D-08
    0.952126868134D+00 0.342562500000D+03 0.301707291562D+01-0.859607234663D-08
    0.102504269714D-09 0.000000000000D+00 0.189900000000D+04 0.000000000000D+00
    0.200000000000D+01 0.000000000000D+00 0.325962901115D-08 0.490000000000D+02
    0.347610000000D+06 0.400000000000D+01 0.000000000000D+00 0.000000000000D+00
32 16  6  2  2  0  0.0-0.163414515555D-04-0.716227077646D-11 0.000000000000D+00
    0.740000000000D+02 0.106750000000D+03 0.429517891144D-08-0.543732730845D+00
    0.533089041710D-05 0.433029257692D-03 0.112280249596D-04 0.515362079048D+04
    0.352800000000D+06 0.745058059692D-07-0.203066208831D+00 0.372529029846D-07
    0.960006003006D+00 0.162625000000D+03-0.236312779147D+01-0.799497587998D-08
    0.125005206969D-10 0.100000000000D+01 0.189900000000D+04 0.000000000000D+00
    0.200000000000D+01 0.000000000000D+00 0.465661287308D-09 0.740000000000D+02
    0.345618000000D+06 0.400000000000D+01 0.000000000000D+00 0.000000000000D+00
 1 16  6  2  3 59 44.0 0.222981907427D-04 0.125055521494D-11 0.000000000000D+00
    0.200000000000D+01 0.825000000000D+01 0.508199739988D-08-0.195594859741D+01
    0.264495611191D-06 0.550471199676D-02 0.512227416038D-05 0.515363293838D+04
    0.359984000000D+06 0.614672899246D-07-0.228559967105D+01-0.763684511185D-07
    0.964314394765D+00 0.282031250000D+03 0.462756528604D+00-0.830534595100D-08
    0.381087302387D-09 0.000000000000D+00 0.189900000000D+04 0.000000000000D+00
    0.200000000000D+01 0.000000000000D+00 0.512227416039D-08 0.200000000000D+01
    0.352800000000D+06 0.400000000000D+01 0.000000000000D+00 0.000000000000D+00
 3 16  6  2  3 59 44.0-0.634831376374D-04-0.352429196937D-11 0.000000000000D+00
    0.700000000000D+01-0.446250000000D+02 0.476769859378D-08-0.736631410329D+00
   -0.239908695221D-05 0.233914935961D-03 0.975467264652D-05 0.515369069481D+04
    0.359984000000D+06-0.931322574616D-08-0.124382471489D+01-0.447034835815D-07
    0.958923922002D+00 0.187281250000D+03-0.189048996953D+01-0.809498004555D-08
   -0.663599070136D-09 0.000000000000D+00 0.189900000000D+04 0.000000000000D+00
    0.200000000000D+01 0.000000000000D+00 0.186264514923D-08 0.700000000000D+01
    0.354990000000D+06 0.400000000000D+01 0.000000000000D+00 0.000000000000D+00
 5 16  6  2  3 59 44.0-0.116087961942D-03 0.295585778076D-11 0.000000000000D+00
    0.500000000000D+01-0.548125000000D+02 0.518700177373D-08 0.907904155132D+00
   -0.254996120930D-05 0.460910785478D-02 0.867247581482D-05 0.515380037880D+04
    0.359984000000D+06-0.111758708954D-07-0.125580005256D+01 0.223517417908D-07
    0.945987912354D+00 0.203031250000D+03 0.454821893546D+00-0.837213444729D-08
   -0.648241287566D-09 0.100000000000D+01 0.189900000000D+04 0.000000000000D+00
    0.200000000000D+01 0.000000000000D+00-0.107102096081D-07 0.500000000000D+01
    0.357516000000D+06 0.400000000000D+01 0.000000000000D+00 0.000000000000D+00
